{"type" : "FeatureCollection", "features" : [{"type" : "Feature", "geometry" : {"type":"Point","coordinates":[-74.443736435,40.741683056]}, "properties" : {"level" : "Very Unhealthy", "pollutant" : "pm25", "value" : 252, "sensor_id" : "s10", "ts" : "2026-07-20T07:28:41.41039+00:00"}}, {"type" : "Feature", "geometry" : {"type":"Point","coordinates":[-74.491092095,40.621279452]}, "properties" : {"level" : "Very Unhealthy", "pollutant" : "pm25", "value" : 241, "sensor_id" : "s3", "ts" : "2026-07-20T07:28:41.410387+00:00"}}, {"type" : "Feature", "geometry" : {"type":"Point","coordinates":[-74.779491698,40.910539145]}, "properties" : {"level" : "Unhealthy", "pollutant" : "pm25", "value" : 171, "sensor_id" : "s7", "ts" : "2026-07-20T07:28:41.410384+00:00"}}, {"type" : "Feature", "geometry" : {"type":"Point","coordinates":[-74.626345461,40.781783895]}, "properties" : {"level" : "Hazardous", "pollutant" : "pm25", "value" : 315, "sensor_id" : "s13", "ts" : "2026-07-20T07:28:41.410378+00:00"}}, {"type" : "Feature", "geometry" : {"type":"Point","coordinates":[-74.207233868,40.442472016]}, "properties" : {"level" : "Very Unhealthy", "pollutant" : "pm25", "value" : 226, "sensor_id" : "s2", "ts" : "2026-07-20T07:28:41.410375+00:00"}}, {"type" : "Feature", "geometry" : {"type":"Point","coordinates":[-74.499422566,40.290312425]}, "properties" : {"level" : "Very Unhealthy", "pollutant" : "pm25", "value" : 207, "sensor_id" : "s10", "ts" : "2026-07-20T07:28:41.410372+00:00"}}, {"type" : "Feature", "geometry" : {"type":"Point","coordinates":[-74.223456272,40.198602797]}, "properties" : {"level" : "Hazardous", "pollutant" : "pm25", "value" : 343, "sensor_id" : "s18", "ts" : "2026-07-20T07:28:41.410369+00:00"}}, {"type" : "Feature", "geometry" : {"type":"Point","coordinates":[-74.790065496,40.19033965]}, "properties" : {"level" : "Unhealthy", "pollutant" : "pm25", "value" : 183, "sensor_id" : "s18", "ts" : "2026-07-20T07:28:41.410366+00:00"}}, {"type" : "Feature", "geometry" : {"type":"Point","coordinates":[-74.163148222,40.621520142]}, "properties" : {"level" : "Unhealthy", "pollutant" : "pm25", "value" : 153, "sensor_id" : "s1", "ts" : "2026-07-20T07:28:41.410363+00:00"}}, {"type" : "Feature", "geometry" : {"type":"Point","coordinates":[-74.087396965,40.702399997]}, "properties" : {"level" : "Unhealthy", "pollutant" : "pm25", "value" : 172, "sensor_id" : "s8", "ts" : "2026-07-20T07:28:41.41036+00:00"}}, {"type" : "Feature", "geometry" : {"type":"Point","coordinates":[-74.686934911,40.186429013]}, "properties" : {"level" : "Unhealthy", "pollutant" : "pm25", "value" : 165, "sensor_id" : "s9", "ts" : "2026-07-20T07:28:41.410357+00:00"}}, {"type" : "Feature", "geometry" : {"type":"Point","coordinates":[-74.856097554,40.533470261]}, "properties" : {"level" : "Unhealthy", "pollutant" : "pm25", "value" : 169, "sensor_id" : "s6", "ts" : "2026-07-20T07:28:41.410354+00:00"}}, {"type" : "Feature", "geometry" : {"type":"Point","coordinates":[-74.613164058,40.784408236]}, "properties" : {"level" : "Hazardous", "pollutant" : "pm25", "value" : 311, "sensor_id" : "s4", "ts" : "2026-07-20T07:28:41.410351+00:00"}}, {"type" : "Feature", "geometry" : {"type":"Point","coordinates":[-74.394177775,40.354217182]}, "properties" : {"level" : "Very Unhealthy", "pollutant" : "pm25", "value" : 218, "sensor_id" : "s9", "ts" : "2026-07-20T07:28:41.410345+00:00"}}, {"type" : "Feature", "geometry" : {"type":"Point","coordinates":[-74.888671178,40.410874093]}, "properties" : {"level" : "Unhealthy", "pollutant" : "pm25", "value" : 186, "sensor_id" : "s18", "ts" : "2026-07-20T07:28:41.410342+00:00"}}, {"type" : "Feature", "geometry" : {"type":"Point","coordinates":[-74.066833535,40.622102974]}, "properties" : {"level" : "Unhealthy for Sensitive Groups", "pollutant" : "pm25", "value" : 103, "sensor_id" : "s12", "ts" : "2026-07-20T07:28:41.410339+00:00"}}, {"type" : "Feature", "geometry" : {"type":"Point","coordinates":[-74.284485654,40.068312783]}, "properties" : {"level" : "Very Unhealthy", "pollutant" : "pm25", "value" : 261, "sensor_id" : "s17", "ts" : "2026-07-20T07:28:41.410335+00:00"}}, {"type" : "Feature", "geometry" : {"type":"Point","coordinates":[-74.709352757,40.805486432]}, "properties" : {"level" : "Unhealthy", "pollutant" : "pm25", "value" : 184, "sensor_id" : "s2", "ts" : "2026-07-20T07:28:41.410332+00:00"}}, {"type" : "Feature", "geometry" : {"type":"Point","coordinates":[-74.023806671,40.562084069]}, "properties" : {"level" : "Unhealthy", "pollutant" : "pm25", "value" : 157, "sensor_id" : "s16", "ts" : "2026-07-20T07:28:41.410329+00:00"}}, {"type" : "Feature", "geometry" : {"type":"Point","coordinates":[-74.660848695,40.754442737]}, "properties" : {"level" : "Unhealthy for Sensitive Groups", "pollutant" : "pm25", "value" : 120, "sensor_id" : "s8", "ts" : "2026-07-20T07:28:41.410325+00:00"}}, {"type" : "Feature", "geometry" : {"type":"Point","coordinates":[-74.747289014,40.784328715]}, "properties" : {"level" : "Unhealthy", "pollutant" : "pm25", "value" : 177, "sensor_id" : "s12", "ts" : "2026-07-20T07:28:41.410322+00:00"}}, {"type" : "Feature", "geometry" : {"type":"Point","coordinates":[-74.803826582,40.955742305]}, "properties" : {"level" : "Unhealthy for Sensitive Groups", "pollutant" : "pm25", "value" : 102, "sensor_id" : "s4", "ts" : "2026-07-20T07:28:41.410319+00:00"}}, {"type" : "Feature", "geometry" : {"type":"Point","coordinates":[-74.863704133,40.6121798]}, "properties" : {"level" : "Very Unhealthy", "pollutant" : "pm25", "value" : 281, "sensor_id" : "s9", "ts" : "2026-07-20T07:28:41.410316+00:00"}}, {"type" : "Feature", "geometry" : {"type":"Point","coordinates":[-74.572574686,40.392215729]}, "properties" : {"level" : "Hazardous", "pollutant" : "pm25", "value" : 304, "sensor_id" : "s3", "ts" : "2026-07-20T07:28:41.410308+00:00"}}, {"type" : "Feature", "geometry" : {"type":"Point","coordinates":[-74.973828452,40.973786126]}, "properties" : {"level" : "Unhealthy", "pollutant" : "pm25", "value" : 170, "sensor_id" : "s15", "ts" : "2026-07-20T07:28:41.410302+00:00"}}, {"type" : "Feature", "geometry" : {"type":"Point","coordinates":[-74.568722143,40.701677909]}, "properties" : {"level" : "Hazardous", "pollutant" : "pm25", "value" : 349, "sensor_id" : "s8", "ts" : "2026-07-20T07:28:41.410298+00:00"}}, {"type" : "Feature", "geometry" : {"type":"Point","coordinates":[-74.156722794,40.462483341]}, "properties" : {"level" : "Very Unhealthy", "pollutant" : "pm25", "value" : 220, "sensor_id" : "s4", "ts" : "2026-07-20T07:28:41.410295+00:00"}}, {"type" : "Feature", "geometry" : {"type":"Point","coordinates":[-74.789673123,40.664984149]}, "properties" : {"level" : "Very Unhealthy", "pollutant" : "pm25", "value" : 276, "sensor_id" : "s19", "ts" : "2026-07-20T07:28:41.410292+00:00"}}, {"type" : "Feature", "geometry" : {"type":"Point","coordinates":[-74.189799982,40.92774667]}, "properties" : {"level" : "Very Unhealthy", "pollutant" : "pm25", "value" : 245, "sensor_id" : "s13", "ts" : "2026-07-20T07:28:41.41029+00:00"}}, {"type" : "Feature", "geometry" : {"type":"Point","coordinates":[-74.554499356,40.971154389]}, "properties" : {"level" : "Hazardous", "pollutant" : "pm25", "value" : 322, "sensor_id" : "s14", "ts" : "2026-07-20T07:28:41.410286+00:00"}}, {"type" : "Feature", "geometry" : {"type":"Point","coordinates":[-74.054351153,40.235087298]}, "properties" : {"level" : "Unhealthy", "pollutant" : "pm25", "value" : 194, "sensor_id" : "s19", "ts" : "2026-07-20T07:28:41.410275+00:00"}}, {"type" : "Feature", "geometry" : {"type":"Point","coordinates":[-74.414782318,40.684742738]}, "properties" : {"level" : "Unhealthy", "pollutant" : "pm25", "value" : 172, "sensor_id" : "s12", "ts" : "2026-07-20T07:28:41.410229+00:00"}}, {"type" : "Feature", "geometry" : {"type":"Point","coordinates":[-74.882253005,40.160570928]}, "properties" : {"level" : "Very Unhealthy", "pollutant" : "pm25", "value" : 225, "sensor_id" : "s8", "ts" : "2026-07-20T07:28:41.410225+00:00"}}, {"type" : "Feature", "geometry" : {"type":"Point","coordinates":[-74.925112791,40.251158088]}, "properties" : {"level" : "Unhealthy", "pollutant" : "pm25", "value" : 182, "sensor_id" : "s4", "ts" : "2026-07-20T07:28:41.410222+00:00"}}, {"type" : "Feature", "geometry" : {"type":"Point","coordinates":[-74.86669026,40.788037645]}, "properties" : {"level" : "Unhealthy for Sensitive Groups", "pollutant" : "pm25", "value" : 121, "sensor_id" : "s5", "ts" : "2026-07-20T07:28:41.410216+00:00"}}, {"type" : "Feature", "geometry" : {"type":"Point","coordinates":[-74.685990579,40.067428832]}, "properties" : {"level" : "Very Unhealthy", "pollutant" : "pm25", "value" : 276, "sensor_id" : "s13", "ts" : "2026-07-20T07:28:41.41021+00:00"}}, {"type" : "Feature", "geometry" : {"type":"Point","coordinates":[-74.988276053,40.558991643]}, "properties" : {"level" : "Unhealthy", "pollutant" : "pm25", "value" : 152, "sensor_id" : "s14", "ts" : "2026-07-20T07:28:41.410207+00:00"}}, {"type" : "Feature", "geometry" : {"type":"Point","coordinates":[-74.734539121,40.653923592]}, "properties" : {"level" : "Unhealthy", "pollutant" : "pm25", "value" : 173, "sensor_id" : "s13", "ts" : "2026-07-20T07:28:41.410204+00:00"}}, {"type" : "Feature", "geometry" : {"type":"Point","coordinates":[-74.953076847,40.644087977]}, "properties" : {"level" : "Very Unhealthy", "pollutant" : "pm25", "value" : 251, "sensor_id" : "s4", "ts" : "2026-07-20T07:28:41.410201+00:00"}}, {"type" : "Feature", "geometry" : {"type":"Point","coordinates":[-74.688945077,40.292906584]}, "properties" : {"level" : "Hazardous", "pollutant" : "pm25", "value" : 308, "sensor_id" : "s15", "ts" : "2026-07-20T07:28:41.410198+00:00"}}, {"type" : "Feature", "geometry" : {"type":"Point","coordinates":[-74.932112785,40.077968598]}, "properties" : {"level" : "Unhealthy", "pollutant" : "pm25", "value" : 177, "sensor_id" : "s14", "ts" : "2026-07-20T07:28:41.410195+00:00"}}, {"type" : "Feature", "geometry" : {"type":"Point","coordinates":[-74.062361906,40.554435741]}, "properties" : {"level" : "Very Unhealthy", "pollutant" : "pm25", "value" : 215, "sensor_id" : "s20", "ts" : "2026-07-20T07:28:41.410192+00:00"}}, {"type" : "Feature", "geometry" : {"type":"Point","coordinates":[-74.799265707,40.618022111]}, "properties" : {"level" : "Very Unhealthy", "pollutant" : "pm25", "value" : 293, "sensor_id" : "s5", "ts" : "2026-07-20T07:28:41.410186+00:00"}}, {"type" : "Feature", "geometry" : {"type":"Point","coordinates":[-74.295168254,40.35937059]}, "properties" : {"level" : "Unhealthy", "pollutant" : "pm25", "value" : 156, "sensor_id" : "s5", "ts" : "2026-07-20T07:28:41.410183+00:00"}}, {"type" : "Feature", "geometry" : {"type":"Point","coordinates":[-74.966555588,40.720482981]}, "properties" : {"level" : "Unhealthy for Sensitive Groups", "pollutant" : "pm25", "value" : 134, "sensor_id" : "s6", "ts" : "2026-07-20T07:28:41.410179+00:00"}}, {"type" : "Feature", "geometry" : {"type":"Point","coordinates":[-74.902325143,40.301209126]}, "properties" : {"level" : "Unhealthy", "pollutant" : "pm25", "value" : 184, "sensor_id" : "s4", "ts" : "2026-07-20T07:28:41.410174+00:00"}}, {"type" : "Feature", "geometry" : {"type":"Point","coordinates":[-74.087977155,40.762987362]}, "properties" : {"level" : "Unhealthy", "pollutant" : "pm25", "value" : 166, "sensor_id" : "s16", "ts" : "2026-07-20T07:28:41.410149+00:00"}}, {"type" : "Feature", "geometry" : {"type":"Point","coordinates":[-74.42329478,40.661576318]}, "properties" : {"level" : "Very Unhealthy", "pollutant" : "pm25", "value" : 267, "sensor_id" : "s5", "ts" : "2026-07-20T07:28:41.410146+00:00"}}, {"type" : "Feature", "geometry" : {"type":"Point","coordinates":[-74.154728972,40.167631147]}, "properties" : {"level" : "Unhealthy", "pollutant" : "pm25", "value" : 178, "sensor_id" : "s13", "ts" : "2026-07-20T07:28:41.410143+00:00"}}, {"type" : "Feature", "geometry" : {"type":"Point","coordinates":[-74.065235052,40.074432524]}, "properties" : {"level" : "Unhealthy", "pollutant" : "pm25", "value" : 186, "sensor_id" : "s19", "ts" : "2026-07-20T07:28:41.41014+00:00"}}, {"type" : "Feature", "geometry" : {"type":"Point","coordinates":[-74.2885625,40.347705584]}, "properties" : {"level" : "Very Unhealthy", "pollutant" : "pm25", "value" : 283, "sensor_id" : "s7", "ts" : "2026-07-20T07:28:41.410137+00:00"}}, {"type" : "Feature", "geometry" : {"type":"Point","coordinates":[-74.113092465,40.511481276]}, "properties" : {"level" : "Unhealthy", "pollutant" : "pm25", "value" : 160, "sensor_id" : "s6", "ts" : "2026-07-20T07:28:41.410134+00:00"}}, {"type" : "Feature", "geometry" : {"type":"Point","coordinates":[-74.403341495,40.298691946]}, "properties" : {"level" : "Unhealthy", "pollutant" : "pm25", "value" : 200, "sensor_id" : "s7", "ts" : "2026-07-20T07:28:41.410131+00:00"}}, {"type" : "Feature", "geometry" : {"type":"Point","coordinates":[-74.127933345,40.586935397]}, "properties" : {"level" : "Very Unhealthy", "pollutant" : "pm25", "value" : 251, "sensor_id" : "s13", "ts" : "2026-07-20T07:28:41.410125+00:00"}}, {"type" : "Feature", "geometry" : {"type":"Point","coordinates":[-74.194631641,40.916805053]}, "properties" : {"level" : "Hazardous", "pollutant" : "pm25", "value" : 336, "sensor_id" : "s13", "ts" : "2026-07-20T07:28:41.410122+00:00"}}, {"type" : "Feature", "geometry" : {"type":"Point","coordinates":[-74.961952254,40.14404724]}, "properties" : {"level" : "Very Unhealthy", "pollutant" : "pm25", "value" : 258, "sensor_id" : "s2", "ts" : "2026-07-20T07:28:41.410119+00:00"}}, {"type" : "Feature", "geometry" : {"type":"Point","coordinates":[-74.582370541,40.277973615]}, "properties" : {"level" : "Very Unhealthy", "pollutant" : "pm25", "value" : 202, "sensor_id" : "s6", "ts" : "2026-07-20T07:28:41.410116+00:00"}}, {"type" : "Feature", "geometry" : {"type":"Point","coordinates":[-74.076366796,40.810690212]}, "properties" : {"level" : "Very Unhealthy", "pollutant" : "pm25", "value" : 209, "sensor_id" : "s7", "ts" : "2026-07-20T07:28:41.410113+00:00"}}, {"type" : "Feature", "geometry" : {"type":"Point","coordinates":[-74.932040695,40.071911999]}, "properties" : {"level" : "Unhealthy for Sensitive Groups", "pollutant" : "pm25", "value" : 101, "sensor_id" : "s17", "ts" : "2026-07-20T07:28:41.41011+00:00"}}, {"type" : "Feature", "geometry" : {"type":"Point","coordinates":[-74.2662171,40.203097672]}, "properties" : {"level" : "Unhealthy for Sensitive Groups", "pollutant" : "pm25", "value" : 122, "sensor_id" : "s9", "ts" : "2026-07-20T07:28:41.410107+00:00"}}, {"type" : "Feature", "geometry" : {"type":"Point","coordinates":[-74.368385919,40.900615746]}, "properties" : {"level" : "Unhealthy", "pollutant" : "pm25", "value" : 178, "sensor_id" : "s6", "ts" : "2026-07-20T07:28:41.410101+00:00"}}, {"type" : "Feature", "geometry" : {"type":"Point","coordinates":[-74.192009475,40.688243613]}, "properties" : {"level" : "Unhealthy", "pollutant" : "pm25", "value" : 174, "sensor_id" : "s2", "ts" : "2026-07-20T07:28:41.410097+00:00"}}, {"type" : "Feature", "geometry" : {"type":"Point","coordinates":[-74.444771215,40.051141239]}, "properties" : {"level" : "Unhealthy", "pollutant" : "pm25", "value" : 155, "sensor_id" : "s2", "ts" : "2026-07-20T07:28:41.410094+00:00"}}, {"type" : "Feature", "geometry" : {"type":"Point","coordinates":[-74.058517292,40.907767474]}, "properties" : {"level" : "Hazardous", "pollutant" : "pm25", "value" : 324, "sensor_id" : "s5", "ts" : "2026-07-20T07:28:41.41009+00:00"}}, {"type" : "Feature", "geometry" : {"type":"Point","coordinates":[-74.782495446,40.090529157]}, "properties" : {"level" : "Very Unhealthy", "pollutant" : "pm25", "value" : 287, "sensor_id" : "s4", "ts" : "2026-07-20T07:28:41.410087+00:00"}}, {"type" : "Feature", "geometry" : {"type":"Point","coordinates":[-74.326616083,40.795412844]}, "properties" : {"level" : "Hazardous", "pollutant" : "pm25", "value" : 334, "sensor_id" : "s15", "ts" : "2026-07-20T07:28:41.410084+00:00"}}, {"type" : "Feature", "geometry" : {"type":"Point","coordinates":[-74.984417035,40.001734056]}, "properties" : {"level" : "Unhealthy", "pollutant" : "pm25", "value" : 175, "sensor_id" : "s18", "ts" : "2026-07-20T07:28:41.410081+00:00"}}, {"type" : "Feature", "geometry" : {"type":"Point","coordinates":[-74.84251906,40.679978056]}, "properties" : {"level" : "Very Unhealthy", "pollutant" : "pm25", "value" : 206, "sensor_id" : "s11", "ts" : "2026-07-20T07:28:41.410078+00:00"}}, {"type" : "Feature", "geometry" : {"type":"Point","coordinates":[-74.392662943,40.096321385]}, "properties" : {"level" : "Unhealthy", "pollutant" : "pm25", "value" : 174, "sensor_id" : "s16", "ts" : "2026-07-20T07:28:41.410075+00:00"}}, {"type" : "Feature", "geometry" : {"type":"Point","coordinates":[-74.263110634,40.105901531]}, "properties" : {"level" : "Very Unhealthy", "pollutant" : "pm25", "value" : 215, "sensor_id" : "s18", "ts" : "2026-07-20T07:28:41.410072+00:00"}}, {"type" : "Feature", "geometry" : {"type":"Point","coordinates":[-74.586899183,40.825471092]}, "properties" : {"level" : "Very Unhealthy", "pollutant" : "pm25", "value" : 296, "sensor_id" : "s16", "ts" : "2026-07-20T07:28:41.410069+00:00"}}, {"type" : "Feature", "geometry" : {"type":"Point","coordinates":[-74.066570859,40.002436892]}, "properties" : {"level" : "Very Unhealthy", "pollutant" : "pm25", "value" : 292, "sensor_id" : "s6", "ts" : "2026-07-20T07:28:41.410066+00:00"}}, {"type" : "Feature", "geometry" : {"type":"Point","coordinates":[-74.153086049,40.99239989]}, "properties" : {"level" : "Unhealthy", "pollutant" : "pm25", "value" : 160, "sensor_id" : "s16", "ts" : "2026-07-20T07:28:41.410061+00:00"}}, {"type" : "Feature", "geometry" : {"type":"Point","coordinates":[-74.547966579,40.288323286]}, "properties" : {"level" : "Very Unhealthy", "pollutant" : "pm25", "value" : 296, "sensor_id" : "s2", "ts" : "2026-07-20T07:28:41.410058+00:00"}}, {"type" : "Feature", "geometry" : {"type":"Point","coordinates":[-74.240649961,40.633125112]}, "properties" : {"level" : "Very Unhealthy", "pollutant" : "pm25", "value" : 211, "sensor_id" : "s2", "ts" : "2026-07-20T07:28:41.410055+00:00"}}, {"type" : "Feature", "geometry" : {"type":"Point","coordinates":[-74.914562662,40.985717312]}, "properties" : {"level" : "Very Unhealthy", "pollutant" : "pm25", "value" : 292, "sensor_id" : "s11", "ts" : "2026-07-20T07:28:41.410051+00:00"}}, {"type" : "Feature", "geometry" : {"type":"Point","coordinates":[-74.835577752,40.752632556]}, "properties" : {"level" : "Unhealthy", "pollutant" : "pm25", "value" : 155, "sensor_id" : "s15", "ts" : "2026-07-20T07:28:41.410044+00:00"}}, {"type" : "Feature", "geometry" : {"type":"Point","coordinates":[-74.513576976,40.443568503]}, "properties" : {"level" : "Very Unhealthy", "pollutant" : "pm25", "value" : 253, "sensor_id" : "s7", "ts" : "2026-07-20T07:28:41.41004+00:00"}}, {"type" : "Feature", "geometry" : {"type":"Point","coordinates":[-74.654410821,40.49005654]}, "properties" : {"level" : "Unhealthy for Sensitive Groups", "pollutant" : "pm25", "value" : 111, "sensor_id" : "s1", "ts" : "2026-07-20T07:28:41.410037+00:00"}}, {"type" : "Feature", "geometry" : {"type":"Point","coordinates":[-74.766131599,40.309440677]}, "properties" : {"level" : "Hazardous", "pollutant" : "pm25", "value" : 332, "sensor_id" : "s6", "ts" : "2026-07-20T07:28:41.410035+00:00"}}, {"type" : "Feature", "geometry" : {"type":"Point","coordinates":[-74.261888195,40.39920804]}, "properties" : {"level" : "Very Unhealthy", "pollutant" : "pm25", "value" : 210, "sensor_id" : "s16", "ts" : "2026-07-20T07:28:41.410029+00:00"}}, {"type" : "Feature", "geometry" : {"type":"Point","coordinates":[-74.251310393,40.943309375]}, "properties" : {"level" : "Very Unhealthy", "pollutant" : "pm25", "value" : 288, "sensor_id" : "s18", "ts" : "2026-07-20T07:28:41.410026+00:00"}}, {"type" : "Feature", "geometry" : {"type":"Point","coordinates":[-74.114614708,40.167562428]}, "properties" : {"level" : "Unhealthy for Sensitive Groups", "pollutant" : "pm25", "value" : 147, "sensor_id" : "s14", "ts" : "2026-07-20T07:28:41.410023+00:00"}}, {"type" : "Feature", "geometry" : {"type":"Point","coordinates":[-74.748296196,40.712738082]}, "properties" : {"level" : "Unhealthy for Sensitive Groups", "pollutant" : "pm25", "value" : 125, "sensor_id" : "s7", "ts" : "2026-07-20T07:28:41.41002+00:00"}}, {"type" : "Feature", "geometry" : {"type":"Point","coordinates":[-74.367350767,40.656361868]}, "properties" : {"level" : "Very Unhealthy", "pollutant" : "pm25", "value" : 289, "sensor_id" : "s20", "ts" : "2026-07-20T07:28:41.410014+00:00"}}, {"type" : "Feature", "geometry" : {"type":"Point","coordinates":[-74.152361828,40.988474308]}, "properties" : {"level" : "Unhealthy", "pollutant" : "pm25", "value" : 176, "sensor_id" : "s19", "ts" : "2026-07-20T07:28:41.41001+00:00"}}, {"type" : "Feature", "geometry" : {"type":"Point","coordinates":[-74.461034851,40.629300899]}, "properties" : {"level" : "Unhealthy for Sensitive Groups", "pollutant" : "pm25", "value" : 132, "sensor_id" : "s5", "ts" : "2026-07-20T07:28:41.410007+00:00"}}, {"type" : "Feature", "geometry" : {"type":"Point","coordinates":[-74.960022623,40.339666711]}, "properties" : {"level" : "Unhealthy", "pollutant" : "pm25", "value" : 159, "sensor_id" : "s11", "ts" : "2026-07-20T07:28:41.410003+00:00"}}, {"type" : "Feature", "geometry" : {"type":"Point","coordinates":[-74.321126872,40.579326696]}, "properties" : {"level" : "Very Unhealthy", "pollutant" : "pm25", "value" : 298, "sensor_id" : "s11", "ts" : "2026-07-20T07:28:41.409999+00:00"}}, {"type" : "Feature", "geometry" : {"type":"Point","coordinates":[-74.307221497,40.980058794]}, "properties" : {"level" : "Unhealthy", "pollutant" : "pm25", "value" : 190, "sensor_id" : "s14", "ts" : "2026-07-20T07:28:41.409995+00:00"}}, {"type" : "Feature", "geometry" : {"type":"Point","coordinates":[-74.531896059,40.43499305]}, "properties" : {"level" : "Unhealthy", "pollutant" : "pm25", "value" : 160, "sensor_id" : "s10", "ts" : "2026-07-20T07:28:41.409992+00:00"}}, {"type" : "Feature", "geometry" : {"type":"Point","coordinates":[-74.217896623,40.739441183]}, "properties" : {"level" : "Very Unhealthy", "pollutant" : "pm25", "value" : 250, "sensor_id" : "s20", "ts" : "2026-07-20T07:28:41.409989+00:00"}}, {"type" : "Feature", "geometry" : {"type":"Point","coordinates":[-74.522752556,40.380992385]}, "properties" : {"level" : "Hazardous", "pollutant" : "pm25", "value" : 325, "sensor_id" : "s18", "ts" : "2026-07-20T07:28:41.409983+00:00"}}, {"type" : "Feature", "geometry" : {"type":"Point","coordinates":[-74.990104078,40.097136678]}, "properties" : {"level" : "Unhealthy", "pollutant" : "pm25", "value" : 184, "sensor_id" : "s3", "ts" : "2026-07-20T07:28:41.40998+00:00"}}, {"type" : "Feature", "geometry" : {"type":"Point","coordinates":[-74.283715102,40.823269093]}, "properties" : {"level" : "Very Unhealthy", "pollutant" : "pm25", "value" : 202, "sensor_id" : "s17", "ts" : "2026-07-20T07:28:41.409977+00:00"}}, {"type" : "Feature", "geometry" : {"type":"Point","coordinates":[-74.105999741,40.399505256]}, "properties" : {"level" : "Unhealthy for Sensitive Groups", "pollutant" : "pm25", "value" : 112, "sensor_id" : "s1", "ts" : "2026-07-20T07:28:41.409974+00:00"}}, {"type" : "Feature", "geometry" : {"type":"Point","coordinates":[-74.316685301,40.281805833]}, "properties" : {"level" : "Unhealthy", "pollutant" : "pm25", "value" : 174, "sensor_id" : "s7", "ts" : "2026-07-20T07:28:41.40997+00:00"}}, {"type" : "Feature", "geometry" : {"type":"Point","coordinates":[-74.447790774,40.761090097]}, "properties" : {"level" : "Unhealthy", "pollutant" : "pm25", "value" : 170, "sensor_id" : "s7", "ts" : "2026-07-20T07:28:41.409967+00:00"}}, {"type" : "Feature", "geometry" : {"type":"Point","coordinates":[-74.725232355,40.522067075]}, "properties" : {"level" : "Very Unhealthy", "pollutant" : "pm25", "value" : 273, "sensor_id" : "s5", "ts" : "2026-07-20T07:28:41.409964+00:00"}}, {"type" : "Feature", "geometry" : {"type":"Point","coordinates":[-74.883049677,40.255413835]}, "properties" : {"level" : "Hazardous", "pollutant" : "pm25", "value" : 319, "sensor_id" : "s6", "ts" : "2026-07-20T07:28:41.409961+00:00"}}, {"type" : "Feature", "geometry" : {"type":"Point","coordinates":[-74.777923854,40.777065111]}, "properties" : {"level" : "Unhealthy", "pollutant" : "pm25", "value" : 193, "sensor_id" : "s2", "ts" : "2026-07-20T07:28:41.409958+00:00"}}, {"type" : "Feature", "geometry" : {"type":"Point","coordinates":[-74.698915489,40.160787241]}, "properties" : {"level" : "Unhealthy", "pollutant" : "pm25", "value" : 162, "sensor_id" : "s19", "ts" : "2026-07-20T07:28:41.409955+00:00"}}, {"type" : "Feature", "geometry" : {"type":"Point","coordinates":[-74.755349212,40.675786956]}, "properties" : {"level" : "Unhealthy", "pollutant" : "pm25", "value" : 192, "sensor_id" : "s13", "ts" : "2026-07-20T07:28:41.409952+00:00"}}, {"type" : "Feature", "geometry" : {"type":"Point","coordinates":[-74.776703769,40.110306301]}, "properties" : {"level" : "Very Unhealthy", "pollutant" : "pm25", "value" : 212, "sensor_id" : "s4", "ts" : "2026-07-20T07:28:41.409949+00:00"}}, {"type" : "Feature", "geometry" : {"type":"Point","coordinates":[-74.166606384,40.753399784]}, "properties" : {"level" : "Hazardous", "pollutant" : "pm25", "value" : 319, "sensor_id" : "s1", "ts" : "2026-07-20T07:28:41.409946+00:00"}}, {"type" : "Feature", "geometry" : {"type":"Point","coordinates":[-74.208976237,40.805697553]}, "properties" : {"level" : "Hazardous", "pollutant" : "pm25", "value" : 348, "sensor_id" : "s12", "ts" : "2026-07-20T07:28:41.409941+00:00"}}, {"type" : "Feature", "geometry" : {"type":"Point","coordinates":[-74.438168465,40.639199178]}, "properties" : {"level" : "Unhealthy", "pollutant" : "pm25", "value" : 186, "sensor_id" : "s3", "ts" : "2026-07-20T07:28:41.409938+00:00"}}, {"type" : "Feature", "geometry" : {"type":"Point","coordinates":[-74.988332673,40.204356077]}, "properties" : {"level" : "Unhealthy", "pollutant" : "pm25", "value" : 167, "sensor_id" : "s10", "ts" : "2026-07-20T07:28:41.409935+00:00"}}, {"type" : "Feature", "geometry" : {"type":"Point","coordinates":[-74.87157925,40.033251475]}, "properties" : {"level" : "Very Unhealthy", "pollutant" : "pm25", "value" : 236, "sensor_id" : "s4", "ts" : "2026-07-20T07:28:41.409932+00:00"}}, {"type" : "Feature", "geometry" : {"type":"Point","coordinates":[-74.780346784,40.119916151]}, "properties" : {"level" : "Hazardous", "pollutant" : "pm25", "value" : 340, "sensor_id" : "s13", "ts" : "2026-07-20T07:28:41.409928+00:00"}}, {"type" : "Feature", "geometry" : {"type":"Point","coordinates":[-74.423581422,40.209752674]}, "properties" : {"level" : "Unhealthy", "pollutant" : "pm25", "value" : 175, "sensor_id" : "s12", "ts" : "2026-07-20T07:28:41.409916+00:00"}}, {"type" : "Feature", "geometry" : {"type":"Point","coordinates":[-74.751884677,40.931142399]}, "properties" : {"level" : "Very Unhealthy", "pollutant" : "pm25", "value" : 292, "sensor_id" : "s9", "ts" : "2026-07-20T07:28:41.409913+00:00"}}, {"type" : "Feature", "geometry" : {"type":"Point","coordinates":[-74.80063918,40.140093695]}, "properties" : {"level" : "Very Unhealthy", "pollutant" : "pm25", "value" : 204, "sensor_id" : "s12", "ts" : "2026-07-20T07:28:41.40991+00:00"}}, {"type" : "Feature", "geometry" : {"type":"Point","coordinates":[-74.209768495,40.569270828]}, "properties" : {"level" : "Very Unhealthy", "pollutant" : "pm25", "value" : 204, "sensor_id" : "s3", "ts" : "2026-07-20T07:28:41.409907+00:00"}}, {"type" : "Feature", "geometry" : {"type":"Point","coordinates":[-74.037639014,40.73473637]}, "properties" : {"level" : "Unhealthy for Sensitive Groups", "pollutant" : "pm25", "value" : 145, "sensor_id" : "s3", "ts" : "2026-07-20T07:28:41.409904+00:00"}}, {"type" : "Feature", "geometry" : {"type":"Point","coordinates":[-74.369960629,40.83108728]}, "properties" : {"level" : "Hazardous", "pollutant" : "pm25", "value" : 323, "sensor_id" : "s7", "ts" : "2026-07-20T07:28:41.409901+00:00"}}, {"type" : "Feature", "geometry" : {"type":"Point","coordinates":[-74.898498167,40.951818241]}, "properties" : {"level" : "Hazardous", "pollutant" : "pm25", "value" : 313, "sensor_id" : "s1", "ts" : "2026-07-20T07:28:41.409897+00:00"}}, {"type" : "Feature", "geometry" : {"type":"Point","coordinates":[-74.552060723,40.934959404]}, "properties" : {"level" : "Unhealthy", "pollutant" : "pm25", "value" : 197, "sensor_id" : "s3", "ts" : "2026-07-20T07:28:41.409865+00:00"}}, {"type" : "Feature", "geometry" : {"type":"Point","coordinates":[-74.064567621,40.396171033]}, "properties" : {"level" : "Unhealthy", "pollutant" : "pm25", "value" : 153, "sensor_id" : "s10", "ts" : "2026-07-20T07:28:41.409861+00:00"}}, {"type" : "Feature", "geometry" : {"type":"Point","coordinates":[-74.808018979,40.51867463]}, "properties" : {"level" : "Unhealthy", "pollutant" : "pm25", "value" : 193, "sensor_id" : "s9", "ts" : "2026-07-20T07:28:41.409855+00:00"}}, {"type" : "Feature", "geometry" : {"type":"Point","coordinates":[-74.653791284,40.396720362]}, "properties" : {"level" : "Very Unhealthy", "pollutant" : "pm25", "value" : 267, "sensor_id" : "s3", "ts" : "2026-07-20T07:28:41.409853+00:00"}}, {"type" : "Feature", "geometry" : {"type":"Point","coordinates":[-74.673581298,40.956188984]}, "properties" : {"level" : "Unhealthy", "pollutant" : "pm25", "value" : 197, "sensor_id" : "s13", "ts" : "2026-07-20T07:28:41.409848+00:00"}}, {"type" : "Feature", "geometry" : {"type":"Point","coordinates":[-74.243819296,40.038822768]}, "properties" : {"level" : "Very Unhealthy", "pollutant" : "pm25", "value" : 285, "sensor_id" : "s15", "ts" : "2026-07-20T07:28:41.409845+00:00"}}, {"type" : "Feature", "geometry" : {"type":"Point","coordinates":[-74.047917168,40.741783741]}, "properties" : {"level" : "Very Unhealthy", "pollutant" : "pm25", "value" : 232, "sensor_id" : "s2", "ts" : "2026-07-20T07:28:41.409828+00:00"}}, {"type" : "Feature", "geometry" : {"type":"Point","coordinates":[-74.783209223,40.6365811]}, "properties" : {"level" : "Unhealthy", "pollutant" : "pm25", "value" : 181, "sensor_id" : "s16", "ts" : "2026-07-20T07:28:41.409825+00:00"}}, {"type" : "Feature", "geometry" : {"type":"Point","coordinates":[-74.944916966,40.42168647]}, "properties" : {"level" : "Unhealthy", "pollutant" : "pm25", "value" : 179, "sensor_id" : "s9", "ts" : "2026-07-20T07:28:41.409822+00:00"}}, {"type" : "Feature", "geometry" : {"type":"Point","coordinates":[-74.011800869,40.10038447]}, "properties" : {"level" : "Hazardous", "pollutant" : "pm25", "value" : 330, "sensor_id" : "s4", "ts" : "2026-07-20T07:28:41.409809+00:00"}}, {"type" : "Feature", "geometry" : {"type":"Point","coordinates":[-74.222503835,40.711600702]}, "properties" : {"level" : "Unhealthy", "pollutant" : "pm25", "value" : 165, "sensor_id" : "s16", "ts" : "2026-07-20T07:28:41.409803+00:00"}}, {"type" : "Feature", "geometry" : {"type":"Point","coordinates":[-74.887247649,40.959903844]}, "properties" : {"level" : "Hazardous", "pollutant" : "pm25", "value" : 324, "sensor_id" : "s14", "ts" : "2026-07-20T07:28:41.4098+00:00"}}, {"type" : "Feature", "geometry" : {"type":"Point","coordinates":[-74.681650502,40.110994881]}, "properties" : {"level" : "Very Unhealthy", "pollutant" : "pm25", "value" : 244, "sensor_id" : "s18", "ts" : "2026-07-20T07:28:41.409797+00:00"}}, {"type" : "Feature", "geometry" : {"type":"Point","coordinates":[-74.000481664,40.491148588]}, "properties" : {"level" : "Unhealthy", "pollutant" : "pm25", "value" : 166, "sensor_id" : "s7", "ts" : "2026-07-20T07:28:41.409789+00:00"}}, {"type" : "Feature", "geometry" : {"type":"Point","coordinates":[-74.809381979,40.960336602]}, "properties" : {"level" : "Hazardous", "pollutant" : "pm25", "value" : 331, "sensor_id" : "s15", "ts" : "2026-07-20T07:28:41.409773+00:00"}}, {"type" : "Feature", "geometry" : {"type":"Point","coordinates":[-74.359653874,40.420725928]}, "properties" : {"level" : "Unhealthy", "pollutant" : "pm25", "value" : 179, "sensor_id" : "s12", "ts" : "2026-07-20T07:28:41.40977+00:00"}}, {"type" : "Feature", "geometry" : {"type":"Point","coordinates":[-74.260876218,40.255360553]}, "properties" : {"level" : "Very Unhealthy", "pollutant" : "pm25", "value" : 209, "sensor_id" : "s19", "ts" : "2026-07-20T07:28:41.409767+00:00"}}, {"type" : "Feature", "geometry" : {"type":"Point","coordinates":[-74.590228064,40.7732079]}, "properties" : {"level" : "Unhealthy for Sensitive Groups", "pollutant" : "pm25", "value" : 136, "sensor_id" : "s9", "ts" : "2026-07-20T07:28:41.409763+00:00"}}, {"type" : "Feature", "geometry" : {"type":"Point","coordinates":[-74.726977655,40.683759082]}, "properties" : {"level" : "Very Unhealthy", "pollutant" : "pm25", "value" : 229, "sensor_id" : "s6", "ts" : "2026-07-20T07:28:41.40976+00:00"}}, {"type" : "Feature", "geometry" : {"type":"Point","coordinates":[-74.623144875,40.091964692]}, "properties" : {"level" : "Very Unhealthy", "pollutant" : "pm25", "value" : 269, "sensor_id" : "s17", "ts" : "2026-07-20T07:28:41.409757+00:00"}}, {"type" : "Feature", "geometry" : {"type":"Point","coordinates":[-74.358303978,40.268896702]}, "properties" : {"level" : "Unhealthy", "pollutant" : "pm25", "value" : 199, "sensor_id" : "s16", "ts" : "2026-07-20T07:28:41.40975+00:00"}}, {"type" : "Feature", "geometry" : {"type":"Point","coordinates":[-74.659816862,40.406327074]}, "properties" : {"level" : "Very Unhealthy", "pollutant" : "pm25", "value" : 269, "sensor_id" : "s13", "ts" : "2026-07-20T07:28:41.409747+00:00"}}, {"type" : "Feature", "geometry" : {"type":"Point","coordinates":[-74.735974998,40.819066515]}, "properties" : {"level" : "Very Unhealthy", "pollutant" : "pm25", "value" : 283, "sensor_id" : "s16", "ts" : "2026-07-20T07:28:41.409744+00:00"}}, {"type" : "Feature", "geometry" : {"type":"Point","coordinates":[-74.80898272,40.666833218]}, "properties" : {"level" : "Unhealthy", "pollutant" : "pm25", "value" : 160, "sensor_id" : "s17", "ts" : "2026-07-20T07:28:41.409741+00:00"}}, {"type" : "Feature", "geometry" : {"type":"Point","coordinates":[-74.49651817,40.493894527]}, "properties" : {"level" : "Unhealthy", "pollutant" : "pm25", "value" : 192, "sensor_id" : "s12", "ts" : "2026-07-20T07:28:41.409736+00:00"}}, {"type" : "Feature", "geometry" : {"type":"Point","coordinates":[-74.216062246,40.813619649]}, "properties" : {"level" : "Unhealthy for Sensitive Groups", "pollutant" : "pm25", "value" : 109, "sensor_id" : "s2", "ts" : "2026-07-20T07:28:41.409728+00:00"}}, {"type" : "Feature", "geometry" : {"type":"Point","coordinates":[-74.546341939,40.148217681]}, "properties" : {"level" : "Hazardous", "pollutant" : "pm25", "value" : 322, "sensor_id" : "s4", "ts" : "2026-07-20T07:28:41.409716+00:00"}}, {"type" : "Feature", "geometry" : {"type":"Point","coordinates":[-74.416148986,40.229974988]}, "properties" : {"level" : "Hazardous", "pollutant" : "pm25", "value" : 333, "sensor_id" : "s3", "ts" : "2026-07-20T07:28:41.409701+00:00"}}, {"type" : "Feature", "geometry" : {"type":"Point","coordinates":[-74.264076596,40.888205922]}, "properties" : {"level" : "Hazardous", "pollutant" : "pm25", "value" : 348, "sensor_id" : "s19", "ts" : "2026-07-20T07:28:41.409698+00:00"}}, {"type" : "Feature", "geometry" : {"type":"Point","coordinates":[-74.246575738,40.144201851]}, "properties" : {"level" : "Hazardous", "pollutant" : "pm25", "value" : 324, "sensor_id" : "s5", "ts" : "2026-07-20T07:28:41.409693+00:00"}}, {"type" : "Feature", "geometry" : {"type":"Point","coordinates":[-74.671933019,40.053586792]}, "properties" : {"level" : "Very Unhealthy", "pollutant" : "pm25", "value" : 235, "sensor_id" : "s15", "ts" : "2026-07-20T07:28:41.409689+00:00"}}, {"type" : "Feature", "geometry" : {"type":"Point","coordinates":[-74.948762129,40.792744158]}, "properties" : {"level" : "Unhealthy", "pollutant" : "pm25", "value" : 160, "sensor_id" : "s8", "ts" : "2026-07-20T07:28:41.409686+00:00"}}, {"type" : "Feature", "geometry" : {"type":"Point","coordinates":[-74.48814285,40.788544521]}, "properties" : {"level" : "Very Unhealthy", "pollutant" : "pm25", "value" : 275, "sensor_id" : "s9", "ts" : "2026-07-20T07:28:41.409682+00:00"}}, {"type" : "Feature", "geometry" : {"type":"Point","coordinates":[-74.616307569,40.690361392]}, "properties" : {"level" : "Unhealthy", "pollutant" : "pm25", "value" : 182, "sensor_id" : "s6", "ts" : "2026-07-20T07:28:41.409679+00:00"}}, {"type" : "Feature", "geometry" : {"type":"Point","coordinates":[-74.909447938,40.088303245]}, "properties" : {"level" : "Unhealthy", "pollutant" : "pm25", "value" : 170, "sensor_id" : "s17", "ts" : "2026-07-20T07:28:41.409675+00:00"}}, {"type" : "Feature", "geometry" : {"type":"Point","coordinates":[-74.382794091,40.989134726]}, "properties" : {"level" : "Very Unhealthy", "pollutant" : "pm25", "value" : 207, "sensor_id" : "s4", "ts" : "2026-07-20T07:28:41.409672+00:00"}}, {"type" : "Feature", "geometry" : {"type":"Point","coordinates":[-74.519723829,40.614048045]}, "properties" : {"level" : "Unhealthy", "pollutant" : "pm25", "value" : 190, "sensor_id" : "s4", "ts" : "2026-07-20T07:28:41.409667+00:00"}}, {"type" : "Feature", "geometry" : {"type":"Point","coordinates":[-74.303114201,40.68042037]}, "properties" : {"level" : "Very Unhealthy", "pollutant" : "pm25", "value" : 299, "sensor_id" : "s14", "ts" : "2026-07-20T07:28:41.409664+00:00"}}, {"type" : "Feature", "geometry" : {"type":"Point","coordinates":[-74.026222348,40.401285522]}, "properties" : {"level" : "Unhealthy", "pollutant" : "pm25", "value" : 172, "sensor_id" : "s18", "ts" : "2026-07-20T07:28:41.40966+00:00"}}, {"type" : "Feature", "geometry" : {"type":"Point","coordinates":[-74.626868496,40.636634721]}, "properties" : {"level" : "Unhealthy for Sensitive Groups", "pollutant" : "pm25", "value" : 127, "sensor_id" : "s9", "ts" : "2026-07-20T07:28:41.409658+00:00"}}, {"type" : "Feature", "geometry" : {"type":"Point","coordinates":[-74.016179644,40.942875469]}, "properties" : {"level" : "Very Unhealthy", "pollutant" : "pm25", "value" : 269, "sensor_id" : "s3", "ts" : "2026-07-20T07:28:41.409654+00:00"}}, {"type" : "Feature", "geometry" : {"type":"Point","coordinates":[-74.706125353,40.80356493]}, "properties" : {"level" : "Unhealthy", "pollutant" : "pm25", "value" : 194, "sensor_id" : "s12", "ts" : "2026-07-20T07:28:41.40965+00:00"}}, {"type" : "Feature", "geometry" : {"type":"Point","coordinates":[-74.264961191,40.93458272]}, "properties" : {"level" : "Very Unhealthy", "pollutant" : "pm25", "value" : 299, "sensor_id" : "s2", "ts" : "2026-07-20T07:28:41.409647+00:00"}}, {"type" : "Feature", "geometry" : {"type":"Point","coordinates":[-74.248883282,40.824414612]}, "properties" : {"level" : "Hazardous", "pollutant" : "pm25", "value" : 321, "sensor_id" : "s7", "ts" : "2026-07-20T07:28:41.409643+00:00"}}, {"type" : "Feature", "geometry" : {"type":"Point","coordinates":[-74.836898236,40.904580868]}, "properties" : {"level" : "Very Unhealthy", "pollutant" : "pm25", "value" : 240, "sensor_id" : "s2", "ts" : "2026-07-20T07:28:41.409638+00:00"}}, {"type" : "Feature", "geometry" : {"type":"Point","coordinates":[-74.614704026,40.563165348]}, "properties" : {"level" : "Unhealthy", "pollutant" : "pm25", "value" : 162, "sensor_id" : "s13", "ts" : "2026-07-20T07:28:41.409634+00:00"}}, {"type" : "Feature", "geometry" : {"type":"Point","coordinates":[-74.428777,40.914412531]}, "properties" : {"level" : "Unhealthy", "pollutant" : "pm25", "value" : 155, "sensor_id" : "s17", "ts" : "2026-07-20T07:28:41.409631+00:00"}}, {"type" : "Feature", "geometry" : {"type":"Point","coordinates":[-74.396438625,40.487632782]}, "properties" : {"level" : "Unhealthy for Sensitive Groups", "pollutant" : "pm25", "value" : 117, "sensor_id" : "s18", "ts" : "2026-07-20T07:28:41.409627+00:00"}}, {"type" : "Feature", "geometry" : {"type":"Point","coordinates":[-74.523307387,40.533735634]}, "properties" : {"level" : "Very Unhealthy", "pollutant" : "pm25", "value" : 278, "sensor_id" : "s12", "ts" : "2026-07-20T07:28:41.409623+00:00"}}, {"type" : "Feature", "geometry" : {"type":"Point","coordinates":[-74.164079013,40.31685251]}, "properties" : {"level" : "Very Unhealthy", "pollutant" : "pm25", "value" : 274, "sensor_id" : "s14", "ts" : "2026-07-20T07:28:41.409617+00:00"}}, {"type" : "Feature", "geometry" : {"type":"Point","coordinates":[-74.119472262,40.417211405]}, "properties" : {"level" : "Very Unhealthy", "pollutant" : "pm25", "value" : 213, "sensor_id" : "s2", "ts" : "2026-07-20T07:28:41.409614+00:00"}}, {"type" : "Feature", "geometry" : {"type":"Point","coordinates":[-74.300042545,40.207576456]}, "properties" : {"level" : "Hazardous", "pollutant" : "pm25", "value" : 329, "sensor_id" : "s10", "ts" : "2026-07-20T07:28:41.40961+00:00"}}, {"type" : "Feature", "geometry" : {"type":"Point","coordinates":[-74.817565957,40.180176156]}, "properties" : {"level" : "Very Unhealthy", "pollutant" : "pm25", "value" : 264, "sensor_id" : "s4", "ts" : "2026-07-20T07:28:41.409607+00:00"}}, {"type" : "Feature", "geometry" : {"type":"Point","coordinates":[-74.815453436,40.925737725]}, "properties" : {"level" : "Unhealthy for Sensitive Groups", "pollutant" : "pm25", "value" : 148, "sensor_id" : "s12", "ts" : "2026-07-20T07:28:41.409602+00:00"}}, {"type" : "Feature", "geometry" : {"type":"Point","coordinates":[-74.119355493,40.976930257]}, "properties" : {"level" : "Unhealthy", "pollutant" : "pm25", "value" : 192, "sensor_id" : "s6", "ts" : "2026-07-20T07:28:41.409561+00:00"}}, {"type" : "Feature", "geometry" : {"type":"Point","coordinates":[-74.590166722,40.490859025]}, "properties" : {"level" : "Unhealthy", "pollutant" : "pm25", "value" : 187, "sensor_id" : "s16", "ts" : "2026-07-20T07:28:41.409556+00:00"}}, {"type" : "Feature", "geometry" : {"type":"Point","coordinates":[-74.196396468,40.373617246]}, "properties" : {"level" : "Very Unhealthy", "pollutant" : "pm25", "value" : 298, "sensor_id" : "s6", "ts" : "2026-07-20T07:28:41.40955+00:00"}}, {"type" : "Feature", "geometry" : {"type":"Point","coordinates":[-74.262690632,40.000993416]}, "properties" : {"level" : "Very Unhealthy", "pollutant" : "pm25", "value" : 226, "sensor_id" : "s4", "ts" : "2026-07-20T07:28:41.409495+00:00"}}, {"type" : "Feature", "geometry" : {"type":"Point","coordinates":[-74.811372302,40.27937135]}, "properties" : {"level" : "Unhealthy", "pollutant" : "pm25", "value" : 165, "sensor_id" : "s3", "ts" : "2026-07-20T07:28:41.409489+00:00"}}, {"type" : "Feature", "geometry" : {"type":"Point","coordinates":[-74.851444936,40.00734869]}, "properties" : {"level" : "Very Unhealthy", "pollutant" : "pm25", "value" : 254, "sensor_id" : "s3", "ts" : "2026-07-20T07:28:41.409484+00:00"}}, {"type" : "Feature", "geometry" : {"type":"Point","coordinates":[-74.793145655,40.018259671]}, "properties" : {"level" : "Unhealthy for Sensitive Groups", "pollutant" : "pm25", "value" : 103, "sensor_id" : "s14", "ts" : "2026-07-20T07:28:41.409472+00:00"}}, {"type" : "Feature", "geometry" : {"type":"Point","coordinates":[-74.978088015,40.385897497]}, "properties" : {"level" : "Very Unhealthy", "pollutant" : "pm25", "value" : 241, "sensor_id" : "s8", "ts" : "2026-07-20T07:28:41.409465+00:00"}}, {"type" : "Feature", "geometry" : {"type":"Point","coordinates":[-74.837532273,40.065490901]}, "properties" : {"level" : "Very Unhealthy", "pollutant" : "pm25", "value" : 245, "sensor_id" : "s2", "ts" : "2026-07-20T07:28:41.409454+00:00"}}]}
